{"type": "FeatureCollection", "features": [ {"type": "Feature", "properties": {"norad_id": 66377, "name": "CZ-11 DEB", "group": "last-30-days", "lat": -47.819362828514436, "lon": 87.31925431947585, "alt_km": 445.4959380758273, "timestamp": "2025-12-05T18:53:12.095242+00:00", "meta": {"OBJECT_NAME": "CZ-11 DEB", "OBJECT_ID": "2025-255B", "EPOCH": "2025-12-05T03:49:57.444960", "MEAN_MOTION": 15.43766179, "ECCENTRICITY": 0.00138166, "INCLINATION": 52.9949, "RA_OF_ASC_NODE": 213.9635, "ARG_OF_PERICENTER": 16.3255, "MEAN_ANOMALY": 343.8192, "EPHEMERIS_TYPE": 0, "CLASSIFICATION_TYPE": "U", "NORAD_CAT_ID": 66377, "ELEMENT_SET_NO": 999, "REV_AT_EPOCH": 404, "BSTAR": 0.0013050272, "MEAN_MOTION_DOT": 0.00060195, "MEAN_MOTION_DDOT": 0}, "tle": {"line1": "1 66377U 25255B   25339.15969265  .00060195  00000+0  13050-2 0  9994", "line2": "2 66377  52.9949 213.9635 0013816  16.3255 343.8192 15.43766179  4046"}}, "geometry": {"type": "Point", "coordinates": [87.31925431947585, -47.819362828514436]}}, {"type": "Feature", "properties": {"norad_id": 66378, "name": "SHIYAN-32 02", "group": "last-30-days", "lat": -51.46487126174371, "lon": 139.63941745096292, "alt_km": 438.223984095378, "timestamp": "2025-12-05T18:53:12.095252+00:00", "meta": {"OBJECT_NAME": "SHIYAN-32 02", "OBJECT_ID": "2025-255C", "EPOCH": "2025-12-05T05:14:50.286048", "MEAN_MOTION": 15.44376776, "ECCENTRICITY": 0.00121626, "INCLINATION": 52.9936, "RA_OF_ASC_NODE": 213.6194, "ARG_OF_PERICENTER": 13.4657, "MEAN_ANOMALY": 346.667, "EPHEMERIS_TYPE": 0, "CLASSIFICATION_TYPE": "U", "NORAD_CAT_ID": 66378, "ELEMENT_SET_NO": 999, "REV_AT_EPOCH": 405, "BSTAR": 0.0016796731, "MEAN_MOTION_DOT": 0.00079363, "MEAN_MOTION_DDOT": 0}, "tle": {"line1": "1 66378U 25255C   25339.21863757  .00079363  00000+0  16797-2 0  9999", "line2": "2 66378  52.9936 213.6194 0012162  13.4657 346.6670 15.44376776  4051"}}, "geometry": {"type": "Point", "coordinates": [139.63941745096292, -51.46487126174371]}}, {"type": "Feature", "properties": {"norad_id": 66379, "name": "SHIYAN-32 03", "group": "last-30-days", "lat": -20.05027865333351, "lon": 47.040464306923816, "alt_km": 451.5588813049708, "timestamp": "2025-12-05T18:53:12.095262+00:00", "meta": {"OBJECT_NAME": "SHIYAN-32 03", "OBJECT_ID": "2025-255D", "EPOCH": "2025-12-05T07:07:02.067744", "MEAN_MOTION": 15.42749389, "ECCENTRICITY": 0.00155383, "INCLINATION": 52.996, "RA_OF_ASC_NODE": 213.3945, "ARG_OF_PERICENTER": 20.0996, "MEAN_ANOMALY": 340.0617, "EPHEMERIS_TYPE": 0, "CLASSIFICATION_TYPE": "U", "NORAD_CAT_ID": 66379, "ELEMENT_SET_NO": 999, "REV_AT_EPOCH": 408, "BSTAR": 0.00058546258, "MEAN_MOTION_DOT": 0.00025763, "MEAN_MOTION_DDOT": 0}, "tle": {"line1": "1 66379U 25255D   25339.29655171  .00025763  00000+0  58546-3 0  9991", "line2": "2 66379  52.9960 213.3945 0015538  20.0996 340.0617 15.42749389  4084"}}, "geometry": {"type": "Point", "coordinates": [47.040464306923816, -20.05027865333351]}}, {"type": "Feature", "properties": {"norad_id": 66380, "name": "STARLINK-35139", "group": "last-30-days", "lat": 41.96384503243326, "lon": 75.0240205863303, "alt_km": 440.3689185182229, "timestamp": "2025-12-05T18:53:12.095273+00:00", "meta": {"OBJECT_NAME": "STARLINK-35139", "OBJECT_ID": "2025-257A", "EPOCH": "2025-12-05T06:00:02.000160", "MEAN_MOTION": 15.39580895, "ECCENTRICITY": 0.00018883, "INCLINATION": 53.1596, "RA_OF_ASC_NODE": 299.9469, "ARG_OF_PERICENTER": 96.7559, "MEAN_ANOMALY": 288.8357, "EPHEMERIS_TYPE": 0, "CLASSIFICATION_TYPE": "U", "NORAD_CAT_ID": 66380, "ELEMENT_SET_NO": 999, "REV_AT_EPOCH": 523, "BSTAR": 0.0021972198, "MEAN_MOTION_DOT": 0.000884, "MEAN_MOTION_DDOT": 0}, "tle": {"line1": "1 66380U 25257A   25339.25002315  .00088400  00000+0  21972-2 0  9996", "line2": "2 66380  53.1596 299.9469 0001888  96.7559 288.8357 15.39580895  5232"}}, "geometry": {"type": "Point", "coordinates": [75.0240205863303, 41.96384503243326]}}, {"type": "Feature", "properties": {"norad_id": 66381, "name": "STARLINK-35158", "group": "last-30-days", "lat": 40.85114271430062, "lon": 76.99743214317311, "alt_km": 441.276047950415, "timestamp": "2025-12-05T18:53:12.095283+00:00", "meta": {"OBJECT_NAME": "STARLINK-35158", "OBJECT_ID": "2025-257B", "EPOCH": "2025-12-05T06:00:02.000160", "MEAN_MOTION": 15.39560488, "ECCENTRICITY": 7.29e-05, "INCLINATION": 53.1597, "RA_OF_ASC_NODE": 299.9427, "ARG_OF_PERICENTER": 88.9223, "MEAN_ANOMALY": 298.5365, "EPHEMERIS_TYPE": 0, "CLASSIFICATION_TYPE": "U", "NORAD_CAT_ID": 66381, "ELEMENT_SET_NO": 999, "REV_AT_EPOCH": 529, "BSTAR": 0.0028763487, "MEAN_MOTION_DOT": 0.00116193, "MEAN_MOTION_DDOT": 0}, "tle": {"line1": "1 66381U 25257B   25339.25002315  .00116193  00000+0  28763-2 0  9993", "line2": "2 66381  53.1597 299.9427 0000729  88.9223 298.5365 15.39560488  5291"}}, "geometry": {"type": "Point", "coordinates": [76.99743214317311, 40.85114271430062]}}, {"type": "Feature", "properties": {"norad_id": 66382, "name": "STARLINK-35639", "group": "last-30-days", "lat": 24.24481710875058, "lon": 97.62986855906271, "alt_km": 444.21267056767283, "timestamp": "2025-12-05T18:53:12.095294+00:00", "meta": {"OBJECT_NAME": "STARLINK-35639", "OBJECT_ID": "2025-257C", "EPOCH": "2025-12-05T06:00:02.000160", "MEAN_MOTION": 15.3957936, "ECCENTRICITY": 0.00012096, "INCLINATION": 53.1602, "RA_OF_ASC_NODE": 299.8936, "ARG_OF_PERICENTER": 70.603, "MEAN_ANOMALY": 340.7784, "EPHEMERIS_TYPE": 0, "CLASSIFICATION_TYPE": "U", "NORAD_CAT_ID": 66382, "ELEMENT_SET_NO": 999, "REV_AT_EPOCH": 529, "BSTAR": 0.0019431638, "MEAN_MOTION_DOT": 0.0007802, "MEAN_MOTION_DDOT": 0}, "tle": {"line1": "1 66382U 25257C   25339.25002315  .00078020  00000+0  19432-2 0  9993", "line2": "2 66382  53.1602 299.8936 0001209  70.6030 340.7784 15.39579360  5295"}}, "geometry": {"type": "Point", "coordinates": [97.62986855906271, 24.24481710875058]}}, {"type": "Feature", "properties": {"norad_id": 66383, "name": "STARLINK-35690", "group": "last-30-days", "lat": 4.085048879751444, "lon": 114.24236543666967, "alt_km": 447.7327529378799, "timestamp": "2025-12-05T18:53:12.095304+00:00", "meta": {"OBJECT_NAME": "STARLINK-35690", "OBJECT_ID": "2025-257D", "EPOCH": "2025-12-05T06:00:02.000160", "MEAN_MOTION": 15.39563176, "ECCENTRICITY": 0.00014907, "INCLINATION": 53.1607, "RA_OF_ASC_NODE": 299.8422, "ARG_OF_PERICENTER": 66.8172, "MEAN_ANOMALY": 10.3245, "EPHEMERIS_TYPE": 0, "CLASSIFICATION_TYPE": "U", "NORAD_CAT_ID": 66383, "ELEMENT_SET_NO": 999, "REV_AT_EPOCH": 529, "BSTAR": 0.0024774355, "MEAN_MOTION_DOT": 0.00099815, "MEAN_MOTION_DDOT": 0}, "tle": {"line1": "1 66383U 25257D   25339.25002315  .00099815  00000+0  24774-2 0  9994", "line2": "2 66383  53.1607 299.8422 0001490  66.8172  10.3245 15.39563176  5297"}}, "geometry": {"type": "Point", "coordinates": [114.24236543666967, 4.085048879751444]}}, {"type": "Feature", "properties": {"norad_id": 66384, "name": "STARLINK-35662", "group": "last-30-days", "lat": 2.6185587608595564, "lon": 115.3440100683295, "alt_km": 447.49503464143254, "timestamp": "2025-12-05T18:53:12.095314+00:00", "meta": {"OBJECT_NAME": "STARLINK-35662", "OBJECT_ID": "2025-257E", "EPOCH": "2025-12-05T06:00:02.000160", "MEAN_MOTION": 15.39573256, "ECCENTRICITY": 0.00016385, "INCLINATION": 53.161, "RA_OF_ASC_NODE": 299.8395, "ARG_OF_PERICENTER": 91.6158, "MEAN_ANOMALY": 347.3413, "EPHEMERIS_TYPE": 0, "CLASSIFICATION_TYPE": "U", "NORAD_CAT_ID": 66384, "ELEMENT_SET_NO": 999, "REV_AT_EPOCH": 529, "BSTAR": 0.002404948, "MEAN_MOTION_DOT": 0.00096878, "MEAN_MOTION_DDOT": 0}, "tle": {"line1": "1 66384U 25257E   25339.25002315  .00096878  00000+0  24049-2 0  9996", "line2": "2 66384  53.1610 299.8395 0001638  91.6158 347.3413 15.39573256  5295"}}, "geometry": {"type": "Point", "coordinates": [115.3440100683295, 2.6185587608595564]}}, {"type": "Feature", "properties": {"norad_id": 66385, "name": "STARLINK-35659", "group": "last-30-days", "lat": 22.869321199395515, "lon": 98.92598887679708, "alt_km": 444.29695378055567, "timestamp": "2025-12-05T18:53:12.095327+00:00", "meta": {"OBJECT_NAME": "STARLINK-35659", "OBJECT_ID": "2025-257F", "EPOCH": "2025-12-05T06:00:02.000160", "MEAN_MOTION": 15.39575896, "ECCENTRICITY": 0.00010991, "INCLINATION": 53.1604, "RA_OF_ASC_NODE": 299.8908, "ARG_OF_PERICENTER": 86.6579, "MEAN_ANOMALY": 326.5538, "EPHEMERIS_TYPE": 0, "CLASSIFICATION_TYPE": "U", "NORAD_CAT_ID": 66385, "ELEMENT_SET_NO": 999, "REV_AT_EPOCH": 529, "BSTAR": 0.0018524877, "MEAN_MOTION_DOT": 0.00074315, "MEAN_MOTION_DDOT": 0}, "tle": {"line1": "1 66385U 25257F   25339.25002315  .00074315  00000+0  18525-2 0  9991", "line2": "2 66385  53.1604 299.8908 0001099  86.6579 326.5538 15.39575896  5290"}}, "geometry": {"type": "Point", "coordinates": [98.92598887679708, 22.869321199395515]}}, {"type": "Feature", "properties": {"norad_id": 66386, "name": "STARLINK-35651", "group": "last-30-days", "lat": -16.408472495922542, "lon": 130.01467744949613, "alt_km": 450.15565489792243, "timestamp": "2025-12-05T18:53:12.095338+00:00", "meta": {"OBJECT_NAME": "STARLINK-35651", "OBJECT_ID": "2025-257G", "EPOCH": "2025-12-05T06:00:02.000160", "MEAN_MOTION": 15.39565316, "ECCENTRICITY": 0.00018531, "INCLINATION": 53.1608, "RA_OF_ASC_NODE": 299.7912, "ARG_OF_PERICENTER": 92.8149, "MEAN_ANOMALY": 10.0911, "EPHEMERIS_TYPE": 0, "CLASSIFICATION_TYPE": "U", "NORAD_CAT_ID": 66386, "ELEMENT_SET_NO": 999, "REV_AT_EPOCH": 529, "BSTAR": 0.0027681056, "MEAN_MOTION_DOT": 0.00111758, "MEAN_MOTION_DDOT": 0}, "tle": {"line1": "1 66386U 25257G   25339.25002315  .00111758  00000+0  27681-2 0  9998", "line2": "2 66386  53.1608 299.7912 0001853  92.8149  10.0911 15.39565316  5295"}}, "geometry": {"type": "Point", "coordinates": [130.01467744949613, -16.408472495922542]}}]}